HUANJING1A(HJ-1A)
1 33320U 08041A   18094.44857022  .00000104  00000-0  21969-4 0  9994
2 33320  97.8959 158.7210 0026477 161.5567 198.6610 14.76904927515776
